GLOBALSTAR M001 [-]     
1 25162U 98008A   23241.06970322 -.00000071  00000+0  19624-3 0  9995
2 25162  52.0029  88.6488 0001335 341.5636 187.3494 12.38166773162298
GLOBALSTAR M004 [-]     
1 25163U 98008B   23241.06726161 -.00000060  00000+0  24216-3 0  9997
2 25163  51.9975 261.8294 0002845 266.5191 123.2132 12.63336866178606
GLOBALSTAR M002 [-]     
1 25164U 98008C   23241.08050977 -.00000090  00000+0 -26219-3 0  9994
2 25164  52.0010  90.2737 0002005  35.6726 324.4228 11.61495189107662
GLOBALSTAR M003 [-]     
1 25165U 98008D   23240.62924788  .00000033  00000+0  13130-2 0  9996
2 25165  51.9713 192.6179 0008134  48.4167 122.1804 12.11932399153364
GLOBALSTAR M014 [-]     
1 25306U 98023A   23241.16308775 -.00000064  00000+0  25199-3 0  9996
2 25306  51.9864  27.1201 0000593 167.4347   4.0101 11.65459196114439
GLOBALSTAR M006 [-]     
1 25307U 98023B   23240.77478670 -.00000071  00000+0  91868-4 0  9990
2 25307  51.9945  55.9674 0003798  17.4454 355.4203 11.58153166140543
GLOBALSTAR M015 [-]     
1 25308U 98023C   23241.04351404 -.00000074  00000+0 -20764-4 0  9998
2 25308  51.9812 123.6195 0012740 349.8210 149.6411 11.48848949118804
GLOBALSTAR M008 [-]     
1 25309U 98023D   23240.93851942 -.00000044  00000+0  40644-3 0  9992
2 25309  51.9978 306.4144 0002475 217.1521 314.4341 12.36026552156755
